{
  "type": "FeatureCollection",
  "features": [
    {
      "type": "Feature",
      "properties": {
        "norad_id": 33835,
        "name": "COSMOS 2251 DEB",
        "group": "cosmos-2251-debris",
        "lat": -45.69043382558932,
        "lon": -87.53331952073775,
        "alt_km": 700.2613717956365,
        "timestamp": "2025-12-26T03:50:12.486854+00:00",
        "meta_object_name": "COSMOS 2251 DEB",
        "meta_object_id": "1993-036CC",
        "meta_epoch": "2025-12-25T15:59:34.374912",
        "meta_mean_motion": 14.62370337,
        "meta_eccentricity": 0.0053708,
        "meta_inclination": 74.0572,
        "meta_ra_of_asc_node": 76.383,
        "meta_arg_of_pericenter": 126.0837,
        "meta_mean_anomaly": 24.3645,
        "meta_ephemeris_type": 0,
        "meta_classification_type": "U",
        "meta_norad_cat_id": 33835,
        "meta_element_set_no": 999,
        "meta_rev_at_epoch": 88978,
        "meta_bstar": 0.00092914,
        "meta_mean_motion_dot": 4.768e-05,
        "meta_mean_motion_ddot": 0,
        "tle_line1": "1 33835U 93036CC  25359.66637008  .00004768  00000+0  92914-3 0  9995",
        "tle_line2": "2 33835  74.0572  76.3830 0053708 126.0837  24.3645 14.62370337889786"
      },
      "geometry": {
        "type": "Point",
        "coordinates": [
          -87.53331952073775,
          -45.69043382558932
        ]
      }
    },
    {
      "type": "Feature",
      "properties": {
        "norad_id": 33836,
        "name": "COSMOS 2251 DEB",
        "group": "cosmos-2251-debris",
        "lat": 11.14751953913781,
        "lon": -124.29172624162423,
        "alt_km": 625.10011590667,
        "timestamp": "2025-12-26T03:50:12.486865+00:00",
        "meta_object_name": "COSMOS 2251 DEB",
        "meta_object_id": "1993-036CD",
        "meta_epoch": "2025-12-25T16:41:26.318400",
        "meta_mean_motion": 14.79832586,
        "meta_eccentricity": 0.002293,
        "meta_inclination": 73.9958,
        "meta_ra_of_asc_node": 233.3824,
        "meta_arg_of_pericenter": 81.6202,
        "meta_mean_anomaly": 337.2002,
        "meta_ephemeris_type": 0,
        "meta_classification_type": "U",
        "meta_norad_cat_id": 33836,
        "meta_element_set_no": 999,
        "meta_rev_at_epoch": 64280,
        "meta_bstar": 0.0011289,
        "meta_mean_motion_dot": 8.521e-05,
        "meta_mean_motion_ddot": 0,
        "tle_line1": "1 33836U 93036CD  25359.69544350  .00008521  00000+0  11289-2 0  9992",
        "tle_line2": "2 33836  73.9958 233.3824 0022930  81.6202 337.2002 14.79832586642806"
      },
      "geometry": {
        "type": "Point",
        "coordinates": [
          -124.29172624162423,
          11.14751953913781
        ]
      }
    },
    {
      "type": "Feature",
      "properties": {
        "norad_id": 33837,
        "name": "COSMOS 2251 DEB",
        "group": "cosmos-2251-debris",
        "lat": 29.224014054907038,
        "lon": 39.56123618335387,
        "alt_km": 741.1978516075378,
        "timestamp": "2025-12-26T03:50:12.486875+00:00",
        "meta_object_name": "COSMOS 2251 DEB",
        "meta_object_id": "1993-036CE",
        "meta_epoch": "2025-12-25T12:48:03.042720",
        "meta_mean_motion": 14.50727377,
        "meta_eccentricity": 0.0035872,
        "meta_inclination": 74.0123,
        "meta_ra_of_asc_node": 31.5108,
        "meta_arg_of_pericenter": 251.2088,
        "meta_mean_anomaly": 108.518,
        "meta_ephemeris_type": 0,
        "meta_classification_type": "U",
        "meta_norad_cat_id": 33837,
        "meta_element_set_no": 999,
        "meta_rev_at_epoch": 88981,
        "meta_bstar": 0.00025624,
        "meta_mean_motion_dot": 9.87e-06,
        "meta_mean_motion_ddot": 0,
        "tle_line1": "1 33837U 93036CE  25359.53336855  .00000987  00000+0  25624-3 0  9992",
        "tle_line2": "2 33837  74.0123  31.5108 0035872 251.2088 108.5180 14.50727377889812"
      },
      "geometry": {
        "type": "Point",
        "coordinates": [
          39.56123618335387,
          29.224014054907038
        ]
      }
    },
    {
      "type": "Feature",
      "properties": {
        "norad_id": 33838,
        "name": "COSMOS 2251 DEB",
        "group": "cosmos-2251-debris",
        "lat": 28.707396602316326,
        "lon": -64.33792702679067,
        "alt_km": 730.7683698263545,
        "timestamp": "2025-12-26T03:50:12.486886+00:00",
        "meta_object_name": "COSMOS 2251 DEB",
        "meta_object_id": "1993-036CF",
        "meta_epoch": "2025-12-25T19:25:45.372288",
        "meta_mean_motion": 14.48403087,
        "meta_eccentricity": 0.0027481,
        "meta_inclination": 74.0365,
        "meta_ra_of_asc_node": 125.3369,
        "meta_arg_of_pericenter": 245.478,
        "meta_mean_anomaly": 238.8832,
        "meta_ephemeris_type": 0,
        "meta_classification_type": "U",
        "meta_norad_cat_id": 33838,
        "meta_element_set_no": 999,
        "meta_rev_at_epoch": 88758,
        "meta_bstar": 0.00045471,
        "meta_mean_motion_dot": 1.684e-05,
        "meta_mean_motion_ddot": 0,
        "tle_line1": "1 33838U 93036CF  25359.80955292  .00001684  00000+0  45471-3 0  9992",
        "tle_line2": "2 33838  74.0365 125.3369 0027481 245.4780 238.8832 14.48403087887582"
      },
      "geometry": {
        "type": "Point",
        "coordinates": [
          -64.33792702679067,
          28.707396602316326
        ]
      }
    },
    {
      "type": "Feature",
      "properties": {
        "norad_id": 33839,
        "name": "COSMOS 2251 DEB",
        "group": "cosmos-2251-debris",
        "lat": 46.27629606326004,
        "lon": -16.721477559549168,
        "alt_km": 730.4464709073309,
        "timestamp": "2025-12-26T03:50:12.486897+00:00",
        "meta_object_name": "COSMOS 2251 DEB",
        "meta_object_id": "1993-036CG",
        "meta_epoch": "2025-12-25T12:37:08.860800",
        "meta_mean_motion": 14.64450648,
        "meta_eccentricity": 0.0085374,
        "meta_inclination": 74.0373,
        "meta_ra_of_asc_node": 181.9107,
        "meta_arg_of_pericenter": 291.0826,
        "meta_mean_anomaly": 99.0176,
        "meta_ephemeris_type": 0,
        "meta_classification_type": "U",
        "meta_norad_cat_id": 33839,
        "meta_element_set_no": 999,
        "meta_rev_at_epoch": 89767,
        "meta_bstar": 0.00022045,
        "meta_mean_motion_dot": 1.196e-05,
        "meta_mean_motion_ddot": 0,
        "tle_line1": "1 33839U 93036CG  25359.52579700  .00001196  00000+0  22045-3 0  9998",
        "tle_line2": "2 33839  74.0373 181.9107 0085374 291.0826  99.0176 14.64450648897675"
      },
      "geometry": {
        "type": "Point",
        "coordinates": [
          -16.721477559549168,
          46.27629606326004
        ]
      }
    },
    {
      "type": "Feature",
      "properties": {
        "norad_id": 33841,
        "name": "COSMOS 2251 DEB",
        "group": "cosmos-2251-debris",
        "lat": 19.185190320450523,
        "lon": -100.95024077683095,
        "alt_km": 755.4158911065779,
        "timestamp": "2025-12-26T03:50:12.486907+00:00",
        "meta_object_name": "COSMOS 2251 DEB",
        "meta_object_id": "1993-036CJ",
        "meta_epoch": "2025-12-25T19:45:59.555808",
        "meta_mean_motion": 14.37878424,
        "meta_eccentricity": 0.0021049,
        "meta_inclination": 74.0373,
        "meta_ra_of_asc_node": 253.953,
        "meta_arg_of_pericenter": 331.9844,
        "meta_mean_anomaly": 108.0202,
        "meta_ephemeris_type": 0,
        "meta_classification_type": "U",
        "meta_norad_cat_id": 33841,
        "meta_element_set_no": 999,
        "meta_rev_at_epoch": 88302,
        "meta_bstar": 0.00021087,
        "meta_mean_motion_dot": 6.11e-06,
        "meta_mean_motion_ddot": 0,
        "tle_line1": "1 33841U 93036CJ  25359.82360597  .00000611  00000+0  21087-3 0  9992",
        "tle_line2": "2 33841  74.0373 253.9530 0021049 331.9844 108.0202 14.37878424883022"
      },
      "geometry": {
        "type": "Point",
        "coordinates": [
          -100.95024077683095,
          19.185190320450523
        ]
      }
    },
    {
      "type": "Feature",
      "properties": {
        "norad_id": 33842,
        "name": "COSMOS 2251 DEB",
        "group": "cosmos-2251-debris",
        "lat": 30.536974637669335,
        "lon": 5.01753182302934,
        "alt_km": 777.2767757655538,
        "timestamp": "2025-12-26T03:50:12.486921+00:00",
        "meta_object_name": "COSMOS 2251 DEB",
        "meta_object_id": "1993-036CK",
        "meta_epoch": "2025-12-24T22:51:30.450528",
        "meta_mean_motion": 14.42719632,
        "meta_eccentricity": 0.00475856,
        "meta_inclination": 74.0316,
        "meta_ra_of_asc_node": 196.9828,
        "meta_arg_of_pericenter": 301.8992,
        "meta_mean_anomaly": 57.7539,
        "meta_ephemeris_type": 0,
        "meta_classification_type": "U",
        "meta_norad_cat_id": 33842,
        "meta_element_set_no": 999,
        "meta_rev_at_epoch": 88513,
        "meta_bstar": 0.00025425841,
        "meta_mean_motion_dot": 8.31e-06,
        "meta_mean_motion_ddot": 0,
        "tle_line1": "1 33842U 93036CK  25358.95243577  .00000831  00000+0  25426-3 0  9999",
        "tle_line2": "2 33842  74.0316 196.9828 0047585 301.8992  57.7539 14.42719632885137"
      },
      "geometry": {
        "type": "Point",
        "coordinates": [
          5.01753182302934,
          30.536974637669335
        ]
      }
    }
  ]
}